LEMUR-2-DEMBITZ         
1 42842U 17042T   26068.47492167  .00020231  00000+0  76561-3 0  9991
2 42842  97.3807 250.9241 0006961  17.1421 343.0051 15.26947128473114
STARLINK-34066          
1 63909U 25095V   26068.34532877  .00044320  00000+0  16072-2 0  9999
2 63909  43.0035 178.2952 0003444 288.9698  71.0780 15.27642769 47725
